[
    {
        "Altitude(m)": 612502.1870086617,
        "Argument of Periapsis(deg)": 0.0,
        "Eccentricity": 0.0,
        "Inclination(deg)": 60.0,
        "Latitude(deg)": -28.135948556464403,
        "Longitude(deg)": 102.14824192908613,
        "Mean Anomaly(deg)": -32.72730000000001,
        "RAAN(deg)": 220.00000000000003,
        "Satellite Name": "Test1 988",
        "Satellite Number": 988,
        "Semi-Major Axis(m)": 6980739.136638005,
        "Time(s)": 0
    },
    {
        "Altitude(m)": 612308.6350159438,
        "Argument of Periapsis(deg)": 0.00010418945913296404,
        "Eccentricity": 0.0,
        "Inclination(deg)": 60.0,
        "Latitude(deg)": -27.623003946502642,
        "Longitude(deg)": 102.50171615958764,
        "Mean Anomaly(deg)": -32.10719385453816,
        "RAAN(deg)": 219.99957995086027,
        "Satellite Name": "Test1 988",
        "Satellite Number": 988,
        "Semi-Major Axis(m)": 6980739.136638005,
        "Time(s)": 10
    },
    {
        "Altitude(m)": 612116.0519309702,
        "Argument of Periapsis(deg)": 0.0002083789182659281,
        "Eccentricity": 0.0,
        "Inclination(deg)": 60.0,
        "Latitude(deg)": -27.108890475111814,
        "Longitude(deg)": 102.85153923624605,
        "Mean Anomaly(deg)": -31.48708770907633,
        "RAAN(deg)": 219.9991599017205,
        "Satellite Name": "Test1 988",
        "Satellite Number": 988,
        "Semi-Major Axis(m)": 6980739.136638005,
        "Time(s)": 20
    },
    {
        "Altitude(m)": 611924.5073403061,
        "Argument of Periapsis(deg)": 0.00031256837739889213,
        "Eccentricity": 0.0,
        "Inclination(deg)": 60.0,
        "Latitude(deg)": -26.593642457707272,
        "Longitude(deg)": 103.197815575345,
        "Mean Anomaly(deg)": -30.86698156361448,
        "RAAN(deg)": 219.99873985258077,
        "Satellite Name": "Test1 988",
        "Satellite Number": 988,
        "Semi-Major Axis(m)": 6980739.136638005,
        "Time(s)": 30
    },
    {
        "Altitude(m)": 611734.0702238895,
        "Argument of Periapsis(deg)": 0.0004167578365318562,
        "Eccentricity": 0.0,
        "Inclination(deg)": 60.0,
        "Latitude(deg)": -26.077293360362077,
        "Longitude(deg)": 103.54064787558185,
        "Mean Anomaly(deg)": -30.24687541815275,
        "RAAN(deg)": 219.99831980344106,
        "Satellite Name": "Test1 988",
        "Satellite Number": 988,
        "Semi-Major Axis(m)": 6980739.136638005,
        "Time(s)": 40
    },
    {
        "Altitude(m)": 611544.8089245473,
        "Argument of Periapsis(deg)": 0.0005209472956648203,
        "Eccentricity": 0.0,
        "Inclination(deg)": 60.0,
        "Latitude(deg)": -25.559875832208373,
        "Longitude(deg)": 103.88013617332757,
        "Mean Anomaly(deg)": -29.6267692726909,
        "RAAN(deg)": 219.9978997543013,
        "Satellite Name": "Test1 988",
        "Satellite Number": 988,
        "Semi-Major Axis(m)": 6980739.136638005,
        "Time(s)": 50
    },
    {
        "Altitude(m)": 611356.7911177425,
        "Argument of Periapsis(deg)": 0.0006251367547977843,
        "Eccentricity": 0.0,
        "Inclination(deg)": 60.0,
        "Latitude(deg)": -25.041421736736428,
        "Longitude(deg)": 104.21637841000516,
        "Mean Anomaly(deg)": -29.006663127229068,
        "RAAN(deg)": 219.99747970516154,
        "Satellite Name": "Test1 988",
        "Satellite Number": 988,
        "Semi-Major Axis(m)": 6980739.136638005,
        "Time(s)": 60
    },
    {
        "Altitude(m)": 611170.0837816694,
        "Argument of Periapsis(deg)": 0.0007293262139307483,
        "Eccentricity": 0.0,
        "Inclination(deg)": 60.0,
        "Latitude(deg)": -24.52196218202641,
        "Longitude(deg)": 104.54947099865514,
        "Mean Anomaly(deg)": -28.38655698176722,
        "RAAN(deg)": 219.9970596560218,
        "Satellite Name": "Test1 988",
        "Satellite Number": 988,
        "Semi-Major Axis(m)": 6980739.136638005,
        "Time(s)": 70
    },
    {
        "Altitude(m)": 610984.7531676271,
        "Argument of Periapsis(deg)": 0.0008335156730637124,
        "Eccentricity": 0.0,
        "Inclination(deg)": 60.0,
        "Latitude(deg)": -24.001527549952083,
        "Longitude(deg)": 104.87950787676546,
        "Mean Anomaly(deg)": -27.76645083630539,
        "RAAN(deg)": 219.9966396068821,
        "Satellite Name": "Test1 988",
        "Satellite Number": 988,
        "Semi-Major Axis(m)": 6980739.136638005,
        "Time(s)": 80
    },
    {
        "Altitude(m)": 610800.8647707267,
        "Argument of Periapsis(deg)": 0.0009377051321966765,
        "Eccentricity": 0.0,
        "Inclination(deg)": 60.0,
        "Latitude(deg)": -23.48014752439259,
        "Longitude(deg)": 105.20658107106755,
        "Mean Anomaly(deg)": -27.146344690843538,
        "RAAN(deg)": 219.9962195577423,
        "Satellite Name": "Test1 988",
        "Satellite Number": 988,
        "Semi-Major Axis(m)": 6980739.136638005,
        "Time(s)": 90
    },
    {
        "Altitude(m)": 610618.4833009755,
        "Argument of Periapsis(deg)": 0.0010418945913296407,
        "Eccentricity": 0.0,
        "Inclination(deg)": 60.0,
        "Latitude(deg)": -22.957851118488865,
        "Longitude(deg)": 105.53078126139482,
        "Mean Anomaly(deg)": -26.52623854538171,
        "RAAN(deg)": 219.9957995086026,
        "Satellite Name": "Test1 988",
        "Satellite Number": 988,
        "Semi-Major Axis(m)": 6980739.136638005,
        "Time(s)": 100
    },
    {
        "Altitude(m)": 610437.672654686,
        "Argument of Periapsis(deg)": 0.0011460840504626045,
        "Eccentricity": 0.0,
        "Inclination(deg)": 60.0,
        "Latitude(deg)": -22.434666700978813,
        "Longitude(deg)": 105.85219683070399,
        "Mean Anomaly(deg)": -25.906132399919855,
        "RAAN(deg)": 219.99537945946284,
        "Satellite Name": "Test1 988",
        "Satellite Number": 988,
        "Semi-Major Axis(m)": 6980739.136638005,
        "Time(s)": 110
    },
    {
        "Altitude(m)": 610258.4958862771,
        "Argument of Periapsis(deg)": 0.0012502735095955685,
        "Eccentricity": 0.0,
        "Inclination(deg)": 60.0,
        "Latitude(deg)": -21.910622021647008,
        "Longitude(deg)": 106.17091442698504,
        "Mean Anomaly(deg)": -25.28602625445803,
        "RAAN(deg)": 219.99495941032308,
        "Satellite Name": "Test1 988",
        "Satellite Number": 988,
        "Semi-Major Axis(m)": 6980739.136638005,
        "Time(s)": 120
    },
    {
        "Altitude(m)": 610081.0151804608,
        "Argument of Periapsis(deg)": 0.0013544629687285324,
        "Eccentricity": 0.0,
        "Inclination(deg)": 60.0,
        "Latitude(deg)": -21.385744235921948,
        "Longitude(deg)": 106.48701952417416,
        "Mean Anomaly(deg)": -24.665920108996175,
        "RAAN(deg)": 219.99453936118334,
        "Satellite Name": "Test1 988",
        "Satellite Number": 988,
        "Semi-Major Axis(m)": 6980739.136638005,
        "Time(s)": 130
    },
    {
        "Altitude(m)": 609905.2918248259,
        "Argument of Periapsis(deg)": 0.0014586524278614966,
        "Eccentricity": 0.0,
        "Inclination(deg)": 60.0,
        "Latitude(deg)": -20.86005992865345,
        "Longitude(deg)": 106.8005954691892,
        "Mean Anomaly(deg)": -24.04581396353435,
        "RAAN(deg)": 219.99411931204364,
        "Satellite Name": "Test1 988",
        "Satellite Number": 988,
        "Semi-Major Axis(m)": 6980739.136638005,
        "Time(s)": 140
    },
    {
        "Altitude(m)": 609731.3861828587,
        "Argument of Periapsis(deg)": 0.0015628418869944607,
        "Eccentricity": 0.0,
        "Inclination(deg)": 60.0,
        "Latitude(deg)": -20.333595137102677,
        "Longitude(deg)": 107.11172404082876,
        "Mean Anomaly(deg)": -23.4257078180726,
        "RAAN(deg)": 219.99369926290387,
        "Satellite Name": "Test1 988",
        "Satellite Number": 988,
        "Semi-Major Axis(m)": 6980739.136638005,
        "Time(s)": 150
    },
    {
        "Altitude(m)": 609559.3576673657,
        "Argument of Periapsis(deg)": 0.0016670313461274247,
        "Eccentricity": 0.0,
        "Inclination(deg)": 60.0,
        "Latitude(deg)": -19.80637537317561,
        "Longitude(deg)": 107.42048600766417,
        "Mean Anomaly(deg)": -22.805601672610667,
        "RAAN(deg)": 219.9932792137641,
        "Satellite Name": "Test1 988",
        "Satellite Number": 988,
        "Semi-Major Axis(m)": 6980739.136638005,
        "Time(s)": 160
    },
    {
        "Altitude(m)": 609389.2647143771,
        "Argument of Periapsis(deg)": 0.0017712208052603888,
        "Eccentricity": 0.0,
        "Inclination(deg)": 60.0,
        "Latitude(deg)": -19.27842564493101,
        "Longitude(deg)": 107.72696017205529,
        "Mean Anomaly(deg)": -22.185495527148916,
        "RAAN(deg)": 219.99285916462438,
        "Satellite Name": "Test1 988",
        "Satellite Number": 988,
        "Semi-Major Axis(m)": 6980739.136638005,
        "Time(s)": 170
    },
    {
        "Altitude(m)": 609221.1647574683,
        "Argument of Periapsis(deg)": 0.001875410264393353,
        "Eccentricity": 0.0,
        "Inclination(deg)": 60.0,
        "Latitude(deg)": -18.74977047739023,
        "Longitude(deg)": 108.03122392604516,
        "Mean Anomaly(deg)": -21.565389381687087,
        "RAAN(deg)": 219.99243911548467,
        "Satellite Name": "Test1 988",
        "Satellite Number": 988,
        "Semi-Major Axis(m)": 6980739.136638005,
        "Time(s)": 180
    },
    {
        "Altitude(m)": 609055.1142025855,
        "Argument of Periapsis(deg)": 0.0019795997235263173,
        "Eccentricity": 0.0,
        "Inclination(deg)": 60.0,
        "Latitude(deg)": -18.220433932681004,
        "Longitude(deg)": 108.33335380627014,
        "Mean Anomaly(deg)": -20.945283236225237,
        "RAAN(deg)": 219.9920190663449,
        "Satellite Name": "Test1 988",
        "Satellite Number": 988,
        "Semi-Major Axis(m)": 6980739.136638005,
        "Time(s)": 190
    }
]